ADRAS-J                 
1 58992U 24034A   24266.78691904  .00005425  00000+0  48694-3 0  9999
2 58992  98.2239 244.3777 0045257  87.7046 272.9354 14.95399797 32445
